{"type": "FeatureCollection", "features": [ {"type": "Feature", "properties": {"norad_id": 17070, "name": "POLAR BEAR", "group": "nnss", "lat": 61.65930148696521, "lon": 2.583989253927182, "alt_km": 949.482696893604, "timestamp": "2025-12-24T16:52:41.800450+00:00", "meta": {"OBJECT_NAME": "POLAR BEAR", "OBJECT_ID": "1986-088A", "EPOCH": "2025-12-24T06:40:05.611008", "MEAN_MOTION": 13.75253086, "ECCENTRICITY": 0.00412897, "INCLINATION": 89.617, "RA_OF_ASC_NODE": 183.3117, "ARG_OF_PERICENTER": 86.0705, "MEAN_ANOMALY": 87.0296, "EPHEMERIS_TYPE": 0, "CLASSIFICATION_TYPE": "U", "NORAD_CAT_ID": 17070, "ELEMENT_SET_NO": 999, "REV_AT_EPOCH": 96137, "BSTAR": 9.0942479e-05, "MEAN_MOTION_DOT": 9.9e-07, "MEAN_MOTION_DDOT": 0}, "tle": {"line1": "1 17070U 86088A   25358.27784272  .00000099  00000+0  90942-4 0  9992", "line2": "2 17070  89.6170 183.3117 0041289  86.0705  87.0296 13.75253086961370"}}, "geometry": {"type": "Point", "coordinates": [2.583989253927182, 61.65930148696521]}}, {"type": "Feature", "properties": {"norad_id": 18361, "name": "OSCAR 27", "group": "nnss", "lat": 30.246440853597992, "lon": -100.06231661779533, "alt_km": 1029.46405719644, "timestamp": "2025-12-24T16:52:41.800461+00:00", "meta": {"OBJECT_NAME": "OSCAR 27", "OBJECT_ID": "1987-080A", "EPOCH": "2025-12-23T22:16:33.536352", "MEAN_MOTION": 13.44908878, "ECCENTRICITY": 0.0103856, "INCLINATION": 90.3737, "RA_OF_ASC_NODE": 79.6907, "ARG_OF_PERICENTER": 191.5852, "MEAN_ANOMALY": 168.2905, "EPHEMERIS_TYPE": 0, "CLASSIFICATION_TYPE": "U", "NORAD_CAT_ID": 18361, "ELEMENT_SET_NO": 999, "REV_AT_EPOCH": 87707, "BSTAR": 0.00016473, "MEAN_MOTION_DOT": 1.08e-06, "MEAN_MOTION_DDOT": 0}, "tle": {"line1": "1 18361U 87080A   25357.92816593  .00000108  00000+0  16473-3 0  9999", "line2": "2 18361  90.3737  79.6907 0103856 191.5852 168.2905 13.44908878877074"}}, "geometry": {"type": "Point", "coordinates": [-100.06231661779533, 30.246440853597992]}}, {"type": "Feature", "properties": {"norad_id": 18362, "name": "OSCAR 29", "group": "nnss", "lat": 38.14986807356497, "lon": -99.52574321686765, "alt_km": 1063.5052610012872, "timestamp": "2025-12-24T16:52:41.800471+00:00", "meta": {"OBJECT_NAME": "OSCAR 29", "OBJECT_ID": "1987-080B", "EPOCH": "2025-12-23T11:38:40.001280", "MEAN_MOTION": 13.44450427, "ECCENTRICITY": 0.01046277, "INCLINATION": 90.375, "RA_OF_ASC_NODE": 80.1339, "ARG_OF_PERICENTER": 216.0464, "MEAN_ANOMALY": 154.8179, "EPHEMERIS_TYPE": 0, "CLASSIFICATION_TYPE": "U", "NORAD_CAT_ID": 18362, "ELEMENT_SET_NO": 999, "REV_AT_EPOCH": 87654, "BSTAR": 0.00017755719, "MEAN_MOTION_DOT": 1.15e-06, "MEAN_MOTION_DDOT": 0}, "tle": {"line1": "1 18362U 87080B   25357.48518520  .00000115  00000+0  17756-3 0  9993", "line2": "2 18362  90.3750  80.1339 0104627 216.0464 154.8179 13.44450427876542"}}, "geometry": {"type": "Point", "coordinates": [-99.52574321686765, 38.14986807356497]}}, {"type": "Feature", "properties": {"norad_id": 19070, "name": "OSCAR 23", "group": "nnss", "lat": -76.86803726579528, "lon": 18.13699172508039, "alt_km": 1265.1930075923574, "timestamp": "2025-12-24T16:52:41.800482+00:00", "meta": {"OBJECT_NAME": "OSCAR 23", "OBJECT_ID": "1988-033A", "EPOCH": "2025-12-24T01:16:30.251424", "MEAN_MOTION": 13.27788942, "ECCENTRICITY": 0.01904233, "INCLINATION": 90.3203, "RA_OF_ASC_NODE": 16.7429, "ARG_OF_PERICENTER": 148.5361, "MEAN_ANOMALY": 267.2442, "EPHEMERIS_TYPE": 0, "CLASSIFICATION_TYPE": "U", "NORAD_CAT_ID": 19070, "ELEMENT_SET_NO": 999, "REV_AT_EPOCH": 82403, "BSTAR": 0.00014553194, "MEAN_MOTION_DOT": 8.2e-07, "MEAN_MOTION_DDOT": 0}, "tle": {"line1": "1 19070U 88033A   25358.05312791  .00000082  00000+0  14553-3 0  9990", "line2": "2 19070  90.3203  16.7429 0190423 148.5361 267.2442 13.27788942824037"}}, "geometry": {"type": "Point", "coordinates": [18.13699172508039, -76.86803726579528]}}, {"type": "Feature", "properties": {"norad_id": 19071, "name": "OSCAR 32", "group": "nnss", "lat": 36.882203345721216, "lon": 16.654752787764604, "alt_km": 1165.8031792737174, "timestamp": "2025-12-24T16:52:41.800493+00:00", "meta": {"OBJECT_NAME": "OSCAR 32", "OBJECT_ID": "1988-033B", "EPOCH": "2025-12-24T07:42:13.754592", "MEAN_MOTION": 13.27955652, "ECCENTRICITY": 0.01891926, "INCLINATION": 90.3208, "RA_OF_ASC_NODE": 16.8837, "ARG_OF_PERICENTER": 134.7211, "MEAN_ANOMALY": 237.9771, "EPHEMERIS_TYPE": 0, "CLASSIFICATION_TYPE": "U", "NORAD_CAT_ID": 19071, "ELEMENT_SET_NO": 999, "REV_AT_EPOCH": 82419, "BSTAR": 8.5937937e-05, "MEAN_MOTION_DOT": 5.3e-07, "MEAN_MOTION_DDOT": 0}, "tle": {"line1": "1 19071U 88033B   25358.32099253  .00000053  00000+0  85938-4 0  9990", "line2": "2 19071  90.3208  16.8837 0189192 134.7211 237.9771 13.27955652824199"}}, "geometry": {"type": "Point", "coordinates": [16.654752787764604, 36.882203345721216]}}, {"type": "Feature", "properties": {"norad_id": 19223, "name": "NOVA 2", "group": "nnss", "lat": 20.627458186376437, "lon": 78.26254029448046, "alt_km": 1155.5453766222354, "timestamp": "2025-12-24T16:52:41.800503+00:00", "meta": {"OBJECT_NAME": "NOVA 2", "OBJECT_ID": "1988-052A", "EPOCH": "2025-12-24T04:21:39.409632", "MEAN_MOTION": 13.22937071, "ECCENTRICITY": 0.00296053, "INCLINATION": 89.9864, "RA_OF_ASC_NODE": 78.2581, "ARG_OF_PERICENTER": 345.217, "MEAN_ANOMALY": 72.8014, "EPHEMERIS_TYPE": 0, "CLASSIFICATION_TYPE": "U", "NORAD_CAT_ID": 19223, "ELEMENT_SET_NO": 999, "REV_AT_EPOCH": 81099, "BSTAR": 0.00018842165, "MEAN_MOTION_DOT": 8.8e-07, "MEAN_MOTION_DDOT": 0}, "tle": {"line1": "1 19223U 88052A   25358.18170613  .00000088  00000+0  18842-3 0  9991", "line2": "2 19223  89.9864  78.2581 0029605 345.2170  72.8014 13.22937071810992"}}, "geometry": {"type": "Point", "coordinates": [78.26254029448046, 20.627458186376437]}}, {"type": "Feature", "properties": {"norad_id": 19419, "name": "OSCAR 25", "group": "nnss", "lat": -43.81531892910963, "lon": -159.74930661781656, "alt_km": 1036.7251824285368, "timestamp": "2025-12-24T16:52:41.800514+00:00", "meta": {"OBJECT_NAME": "OSCAR 25", "OBJECT_ID": "1988-074A", "EPOCH": "2025-12-24T03:35:44.716704", "MEAN_MOTION": 13.4262537, "ECCENTRICITY": 0.00951302, "INCLINATION": 90.0336, "RA_OF_ASC_NODE": 20.2811, "ARG_OF_PERICENTER": 212.8485, "MEAN_ANOMALY": 217.2062, "EPHEMERIS_TYPE": 0, "CLASSIFICATION_TYPE": "U", "NORAD_CAT_ID": 19419, "ELEMENT_SET_NO": 999, "REV_AT_EPOCH": 82793, "BSTAR": 0.00013049821, "MEAN_MOTION_DOT": 8.5e-07, "MEAN_MOTION_DDOT": 0}, "tle": {"line1": "1 19419U 88074A   25358.14982311  .00000085  00000+0  13050-3 0  9997", "line2": "2 19419  90.0336  20.2811 0095130 212.8485 217.2062 13.42625370827931"}}, "geometry": {"type": "Point", "coordinates": [-159.74930661781656, -43.81531892910963]}}, {"type": "Feature", "properties": {"norad_id": 19420, "name": "OSCAR 31", "group": "nnss", "lat": 75.4329789220444, "lon": -159.22886200214506, "alt_km": 1105.174203057858, "timestamp": "2025-12-24T16:52:41.800524+00:00", "meta": {"OBJECT_NAME": "OSCAR 31", "OBJECT_ID": "1988-074B", "EPOCH": "2025-12-24T02:20:50.517024", "MEAN_MOTION": 13.42586465, "ECCENTRICITY": 0.00935135, "INCLINATION": 90.0354, "RA_OF_ASC_NODE": 20.6327, "ARG_OF_PERICENTER": 207.1456, "MEAN_ANOMALY": 213.8261, "EPHEMERIS_TYPE": 0, "CLASSIFICATION_TYPE": "U", "NORAD_CAT_ID": 19420, "ELEMENT_SET_NO": 999, "REV_AT_EPOCH": 82803, "BSTAR": 0.00010999999, "MEAN_MOTION_DOT": 7.3e-07, "MEAN_MOTION_DDOT": 0}, "tle": {"line1": "1 19420U 88074B   25358.09780691  .00000073  00000+0  11000-3 0  9990", "line2": "2 19420  90.0354  20.6327 0093513 207.1456 213.8261 13.42586465828033"}}, "geometry": {"type": "Point", "coordinates": [-159.22886200214506, 75.4329789220444]}}]}